{
"type": "FeatureCollection",
"name": "HillAFBPoint",
"crs": { "type": "name", "properties": { "name": "urn:ogc:def:crs:EPSG::3857" } },
"features": [
{ "type": "Feature", "properties": { "id": 20, "Name": "Gate Area", "Code": null, "vertex_index": 0, "vertex_part": 0, "vertex_part_ring": 0, "vertex_part_index": 0, "distance": 0.0, "angle": 46.463341996628699 }, "geometry": { "type": "Point", "coordinates": [ -12464851.249751977622509, 5027978.119985239580274 ] } },
{ "type": "Feature", "properties": { "id": 20, "Name": "Gate Area", "Code": null, "vertex_index": 1, "vertex_part": 0, "vertex_part_ring": 0, "vertex_part_index": 1, "distance": 109.24171403981747, "angle": 123.49556495878397 }, "geometry": { "type": "Point", "coordinates": [ -12464742.008037937805057, 5027978.119985239580274 ] } },
{ "type": "Feature", "properties": { "id": 20, "Name": "Gate Area", "Code": null, "vertex_index": 2, "vertex_part": 0, "vertex_part_ring": 0, "vertex_part_index": 2, "distance": 222.86673607501993, "angle": 169.18408355556883 }, "geometry": { "type": "Point", "coordinates": [ -12464697.595013214275241, 5027873.534475404769182 ] } },
{ "type": "Feature", "properties": { "id": 20, "Name": "Gate Area", "Code": null, "vertex_index": 3, "vertex_part": 0, "vertex_part_ring": 0, "vertex_part_index": 3, "distance": 297.38752485822931, "angle": 226.39021963047347 }, "geometry": { "type": "Point", "coordinates": [ -12464699.385860985144973, 5027799.035208125598729 ] } },
{ "type": "Feature", "properties": { "id": 20, "Name": "Gate Area", "Code": null, "vertex_index": 4, "vertex_part": 0, "vertex_part_ring": 0, "vertex_part_index": 4, "distance": 458.25390862130195, "angle": 317.16504303031735 }, "geometry": { "type": "Point", "coordinates": [ -12464860.203990833833814, 5027802.975073222070932 ] } },
{ "type": "Feature", "properties": { "id": 20, "Name": "Gate Area", "Code": null, "vertex_index": 5, "vertex_part": 0, "vertex_part_ring": 0, "vertex_part_index": 5, "distance": 633.62756285452804, "angle": 46.463341996628699 }, "geometry": { "type": "Point", "coordinates": [ -12464851.249751977622509, 5027978.119985239580274 ] } },
{ "type": "Feature", "properties": { "id": 16, "Name": "Gym Sauna", "Code": 16, "vertex_index": null, "vertex_part": null, "vertex_part_ring": null, "vertex_part_index": null, "distance": null, "angle": null }, "geometry": null },
{ "type": "Feature", "properties": { "id": 16, "Name": "Gym Sauna", "Code": 16, "vertex_index": 0, "vertex_part": 0, "vertex_part_ring": 0, "vertex_part_index": 0, "distance": 0.0, "angle": 45.159753713412158 }, "geometry": { "type": "Point", "coordinates": [ -12465328.734038939699531, 5028146.044715233147144 ] } },
{ "type": "Feature", "properties": { "id": 16, "Name": "Gym Sauna", "Code": 16, "vertex_index": 1, "vertex_part": 0, "vertex_part_ring": 0, "vertex_part_index": 1, "distance": 71.277766098737999, "angle": 134.64271164979684 }, "geometry": { "type": "Point", "coordinates": [ -12465257.45829764008522, 5028146.581969564780593 ] } },
{ "type": "Feature", "properties": { "id": 16, "Name": "Gym Sauna", "Code": 16, "vertex_index": 2, "vertex_part": 0, "vertex_part_ring": 0, "vertex_part_index": 2, "distance": 180.16263605271484, "angle": 224.50844517186877 }, "geometry": { "type": "Point", "coordinates": [ -12465256.921043308451772, 5028037.698425065726042 ] } },
{ "type": "Feature", "properties": { "id": 16, "Name": "Gym Sauna", "Code": 16, "vertex_index": 3, "vertex_part": 0, "vertex_part_ring": 0, "vertex_part_index": 3, "distance": 253.41378294768504, "angle": 315.02548723548404 }, "geometry": { "type": "Point", "coordinates": [ -12465330.166717156767845, 5028036.803001180291176 ] } },
{ "type": "Feature", "properties": { "id": 16, "Name": "Gym Sauna", "Code": 16, "vertex_index": 4, "vertex_part": 0, "vertex_part_ring": 0, "vertex_part_index": 4, "distance": 362.66489120787435, "angle": 45.159753713412158 }, "geometry": { "type": "Point", "coordinates": [ -12465328.734038939699531, 5028146.044715233147144 ] } },
{ "type": "Feature", "properties": { "id": 1, "Name": "Engine Testing Pad1", "Code": 1, "vertex_index": 0, "vertex_part": 0, "vertex_part_ring": 0, "vertex_part_index": 0, "distance": 0.0, "angle": 43.989717098177863 }, "geometry": { "type": "Point", "coordinates": [ -12465909.864140745252371, 5030584.463040720671415 ] } },
{ "type": "Feature", "properties": { "id": 1, "Name": "Engine Testing Pad1", "Code": 1, "vertex_index": 1, "vertex_part": 0, "vertex_part_ring": 0, "vertex_part_index": 1, "distance": 660.83787252341415, "angle": 158.83576021546693 }, "geometry": { "type": "Point", "coordinates": [ -12465249.399482667446136, 5030606.669553086161613 ] } },
{ "type": "Feature", "properties": { "id": 1, "Name": "Engine Testing Pad1", "Code": 1, "vertex_index": 2, "vertex_part": 0, "vertex_part_ring": 0, "vertex_part_index": 2, "distance": 1356.0050258282988, "angle": 248.85451887627772 }, "geometry": { "type": "Point", "coordinates": [ -12465778.774083882570267, 5030156.092253810726106 ] } },
{ "type": "Feature", "properties": { "id": 1, "Name": "Engine Testing Pad1", "Code": 1, "vertex_index": 3, "vertex_part": 0, "vertex_part_ring": 0, "vertex_part_index": 3, "distance": 1486.4495710693479, "angle": 314.0084757589886 }, "geometry": { "type": "Point", "coordinates": [ -12465909.147801637649536, 5030151.794219159521163 ] } },
{ "type": "Feature", "properties": { "id": 1, "Name": "Engine Testing Pad1", "Code": 1, "vertex_index": 4, "vertex_part": 0, "vertex_part_ring": 0, "vertex_part_index": 4, "distance": 1919.1189856260407, "angle": 43.989717098177863 }, "geometry": { "type": "Point", "coordinates": [ -12465909.864140745252371, 5030584.463040720671415 ] } },
{ "type": "Feature", "properties": { "id": 2, "Name": "Aircraft Fuel Tanks", "Code": 2, "vertex_index": 0, "vertex_part": 0, "vertex_part_ring": 0, "vertex_part_index": 0, "distance": 0.0, "angle": 43.550552847342189 }, "geometry": { "type": "Point", "coordinates": [ -12465794.891713827848434, 5030117.589026726782322 ] } },
{ "type": "Feature", "properties": { "id": 2, "Name": "Aircraft Fuel Tanks", "Code": 2, "vertex_index": 1, "vertex_part": 0, "vertex_part_ring": 0, "vertex_part_index": 1, "distance": 123.21240903327022, "angle": 133.6633883782705 }, "geometry": { "type": "Point", "coordinates": [ -12465671.681387158110738, 5030118.305365835316479 ] } },
{ "type": "Feature", "properties": { "id": 2, "Name": "Aircraft Fuel Tanks", "Code": 2, "vertex_index": 2, "vertex_part": 0, "vertex_part_ring": 0, "vertex_part_index": 2, "distance": 421.45819891384747, "angle": 222.31470557732152 }, "geometry": { "type": "Point", "coordinates": [ -12465659.503622313961387, 5029820.308296680450439 ] } },
{ "type": "Feature", "properties": { "id": 2, "Name": "Aircraft Fuel Tanks", "Code": 2, "vertex_index": 3, "vertex_part": 0, "vertex_part_ring": 0, "vertex_part_index": 3, "distance": 543.40638521382311, "angle": 312.2018700463932 }, "geometry": { "type": "Point", "coordinates": [ -12465781.281270766630769, 5029813.861244703643024 ] } },
{ "type": "Feature", "properties": { "id": 2, "Name": "Aircraft Fuel Tanks", "Code": 2, "vertex_index": 4, "vertex_part": 0, "vertex_part_ring": 0, "vertex_part_index": 4, "distance": 847.43896526572848, "angle": 43.550552847342189 }, "geometry": { "type": "Point", "coordinates": [ -12465794.891713827848434, 5030117.589026726782322 ] } },
{ "type": "Feature", "properties": { "id": 3, "Name": "Legacy burn Pit", "Code": 3, "vertex_index": 0, "vertex_part": 0, "vertex_part_ring": 0, "vertex_part_index": 0, "distance": 0.0, "angle": 45.534435226351022 }, "geometry": { "type": "Point", "coordinates": [ -12466563.300221195444465, 5033647.585859131999314 ] } },
{ "type": "Feature", "properties": { "id": 3, "Name": "Legacy burn Pit", "Code": 3, "vertex_index": 1, "vertex_part": 0, "vertex_part_ring": 0, "vertex_part_index": 1, "distance": 126.09399724735881, "angle": 135.54055395564691 }, "geometry": { "type": "Point", "coordinates": [ -12466437.2245381064713, 5033649.734876457601786 ] } },
{ "type": "Feature", "properties": { "id": 3, "Name": "Legacy burn Pit", "Code": 3, "vertex_index": 2, "vertex_part": 0, "vertex_part_ring": 0, "vertex_part_index": 2, "distance": 245.79981366350637, "angle": 229.93331920373799 }, "geometry": { "type": "Point", "coordinates": [ -12466441.522572757676244, 5033530.106245344504714 ] } },
{ "type": "Feature", "properties": { "id": 3, "Name": "Legacy burn Pit", "Code": 3, "vertex_index": 3, "vertex_part": 0, "vertex_part_ring": 0, "vertex_part_index": 3, "distance": 372.33255548441139, "angle": 319.92720047444209 }, "geometry": { "type": "Point", "coordinates": [ -12466566.881916737183928, 5033547.298383947461843 ] } },
{ "type": "Feature", "properties": { "id": 3, "Name": "Legacy burn Pit", "Code": 3, "vertex_index": 4, "vertex_part": 0, "vertex_part_ring": 0, "vertex_part_index": 4, "distance": 472.68396913585394, "angle": 45.534435226351022 }, "geometry": { "type": "Point", "coordinates": [ -12466563.300221195444465, 5033647.585859131999314 ] } },
{ "type": "Feature", "properties": { "id": 4, "Name": "Welding Shop", "Code": 4, "vertex_index": 0, "vertex_part": 0, "vertex_part_ring": 0, "vertex_part_index": 0, "distance": 0.0, "angle": 19.765452515210551 }, "geometry": { "type": "Point", "coordinates": [ -12464317.218946622684598, 5031236.746589615009725 ] } },
{ "type": "Feature", "properties": { "id": 4, "Name": "Welding Shop", "Code": 4, "vertex_index": 1, "vertex_part": 0, "vertex_part_ring": 0, "vertex_part_index": 1, "distance": 141.7600527065878, "angle": 109.96266103242201 }, "geometry": { "type": "Point", "coordinates": [ -12464190.068754870444536, 5031299.426261604763567 ] } },
{ "type": "Feature", "properties": { "id": 4, "Name": "Welding Shop", "Code": 4, "vertex_index": 2, "vertex_part": 0, "vertex_part_ring": 0, "vertex_part_index": 2, "distance": 303.08273718435748, "angle": 200.81302803779948 }, "geometry": { "type": "Point", "coordinates": [ -12464124.881896002218127, 5031151.860405262559652 ] } },
{ "type": "Feature", "properties": { "id": 4, "Name": "Welding Shop", "Code": 4, "vertex_index": 3, "vertex_part": 0, "vertex_part_ring": 0, "vertex_part_index": 3, "distance": 443.64683392520288, "angle": 290.61581952058805 }, "geometry": { "type": "Point", "coordinates": [ -12464252.748426862061024, 5031093.478767923079431 ] } },
{ "type": "Feature", "properties": { "id": 4, "Name": "Welding Shop", "Code": 4, "vertex_index": 4, "vertex_part": 0, "vertex_part_ring": 0, "vertex_part_index": 4, "distance": 600.75226556445489, "angle": 19.765452515210551 }, "geometry": { "type": "Point", "coordinates": [ -12464317.218946622684598, 5031236.746589615009725 ] } },
{ "type": "Feature", "properties": { "id": 24, "Name": "Municipal Water Supply", "Code": 24, "vertex_index": 0, "vertex_part": 0, "vertex_part_ring": 0, "vertex_part_index": 0, "distance": 0.0, "angle": 53.412236755481658 }, "geometry": { "type": "Point", "coordinates": [ -12465751.688011292368174, 5033274.015014068223536 ] } },
{ "type": "Feature", "properties": { "id": 24, "Name": "Municipal Water Supply", "Code": 24, "vertex_index": 1, "vertex_part": 0, "vertex_part_ring": 0, "vertex_part_index": 1, "distance": 78.468565446994958, "angle": 134.8162772097883 }, "geometry": { "type": "Point", "coordinates": [ -12465673.248878916725516, 5033271.865996742621064 ] } },
{ "type": "Feature", "properties": { "id": 24, "Name": "Municipal Water Supply", "Code": 24, "vertex_index": 2, "vertex_part": 0, "vertex_part_ring": 0, "vertex_part_index": 2, "distance": 152.65204310857609, "angle": 218.12085563698307 }, "geometry": { "type": "Point", "coordinates": [ -12465670.74169203825295, 5033197.724899017252028 ] } },
{ "type": "Feature", "properties": { "id": 24, "Name": "Municipal Water Supply", "Code": 24, "vertex_index": 3, "vertex_part": 0, "vertex_part_ring": 0, "vertex_part_index": 3, "distance": 184.12208467580408, "angle": 288.40436290914766 }, "geometry": { "type": "Point", "coordinates": [ -12465701.5442737005651, 5033191.277847041375935 ] } },
{ "type": "Feature", "properties": { "id": 24, "Name": "Municipal Water Supply", "Code": 24, "vertex_index": 4, "vertex_part": 0, "vertex_part_ring": 0, "vertex_part_index": 4, "distance": 268.12105438527266, "angle": 346.94266643250859 }, "geometry": { "type": "Point", "coordinates": [ -12465757.060554606840014, 5033254.315688585862517 ] } },
{ "type": "Feature", "properties": { "id": 24, "Name": "Municipal Water Supply", "Code": 24, "vertex_index": 5, "vertex_part": 0, "vertex_part_ring": 0, "vertex_part_index": 5, "distance": 288.53986057285067, "angle": 53.412236755481658 }, "geometry": { "type": "Point", "coordinates": [ -12465751.688011292368174, 5033274.015014068223536 ] } },
{ "type": "Feature", "properties": { "id": 8, "Name": "Fuel truck refueling", "Code": 8, "vertex_index": 0, "vertex_part": 0, "vertex_part_ring": 0, "vertex_part_index": 0, "distance": 0.0, "angle": 42.508344476077163 }, "geometry": { "type": "Point", "coordinates": [ -12467380.64314392209053, 5029692.319471775554121 ] } },
{ "type": "Feature", "properties": { "id": 8, "Name": "Fuel truck refueling", "Code": 8, "vertex_index": 1, "vertex_part": 0, "vertex_part_ring": 0, "vertex_part_index": 1, "distance": 191.564132455075, "angle": 129.72423321762821 }, "geometry": { "type": "Point", "coordinates": [ -12467189.380601963028312, 5029703.064558402635157 ] } },
{ "type": "Feature", "properties": { "id": 8, "Name": "Fuel truck refueling", "Code": 8, "vertex_index": 2, "vertex_part": 0, "vertex_part_ring": 0, "vertex_part_index": 2, "distance": 432.79604693695194, "angle": 220.85455458666161 }, "geometry": { "type": "Point", "coordinates": [ -12467158.578020300716162, 5029463.807296177372336 ] } },
{ "type": "Feature", "properties": { "id": 8, "Name": "Fuel truck refueling", "Code": 8, "vertex_index": 3, "vertex_part": 0, "vertex_part_ring": 0, "vertex_part_index": 3, "distance": 647.72762486337547, "angle": 313.63866584511049 }, "geometry": { "type": "Point", "coordinates": [ -12467373.479752836748958, 5029460.225600635632873 ] } },
{ "type": "Feature", "properties": { "id": 8, "Name": "Fuel truck refueling", "Code": 8, "vertex_index": 4, "vertex_part": 0, "vertex_part_ring": 0, "vertex_part_index": 4, "distance": 879.93201584803342, "angle": 42.508344476077163 }, "geometry": { "type": "Point", "coordinates": [ -12467380.64314392209053, 5029692.319471775554121 ] } },
{ "type": "Feature", "properties": { "id": 6, "Name": "Forest Fire", "Code": 6, "vertex_index": 0, "vertex_part": 0, "vertex_part_ring": 0, "vertex_part_index": 0, "distance": 0.0, "angle": 49.867978261633738 }, "geometry": { "type": "Point", "coordinates": [ -12464330.471220100298524, 5032910.114746968261898 ] } },
{ "type": "Feature", "properties": { "id": 6, "Name": "Forest Fire", "Code": 6, "vertex_index": 1, "vertex_part": 0, "vertex_part_ring": 0, "vertex_part_index": 1, "distance": 384.47128512410723, "angle": 128.36352546782604 }, "geometry": { "type": "Point", "coordinates": [ -12463949.378814399242401, 5032859.254670267924666 ] } },
{ "type": "Feature", "properties": { "id": 6, "Name": "Forest Fire", "Code": 6, "vertex_index": 2, "vertex_part": 0, "vertex_part_ring": 0, "vertex_part_index": 2, "distance": 474.93728572728583, "angle": 211.94679090638584 }, "geometry": { "type": "Point", "coordinates": [ -12463917.143554519861937, 5032774.726655470207334 ] } },
{ "type": "Feature", "properties": { "id": 6, "Name": "Forest Fire", "Code": 6, "vertex_index": 3, "vertex_part": 0, "vertex_part_ring": 0, "vertex_part_index": 3, "distance": 773.46167179309919, "angle": 278.10798248293258 }, "geometry": { "type": "Point", "coordinates": [ -12464214.424284528940916, 5032747.505769348703325 ] } },
{ "type": "Feature", "properties": { "id": 6, "Name": "Forest Fire", "Code": 6, "vertex_index": 4, "vertex_part": 0, "vertex_part_ring": 0, "vertex_part_index": 4, "distance": 902.76038478900955, "angle": 326.79099754455831 }, "geometry": { "type": "Point", "coordinates": [ -12464334.769254749640822, 5032794.784150507301092 ] } },
{ "type": "Feature", "properties": { "id": 6, "Name": "Forest Fire", "Code": 6, "vertex_index": 5, "vertex_part": 0, "vertex_part_ring": 0, "vertex_part_index": 5, "distance": 1018.171041064277, "angle": 49.867978261633738 }, "geometry": { "type": "Point", "coordinates": [ -12464330.471220100298524, 5032910.114746968261898 ] } },
{ "type": "Feature", "properties": { "id": 7, "Name": "CATM Range", "Code": 7, "vertex_index": 0, "vertex_part": 0, "vertex_part_ring": 0, "vertex_part_index": 0, "distance": 0.0, "angle": 355.6178700436231 }, "geometry": { "type": "Point", "coordinates": [ -12465232.834640784189105, 5032918.75558746792376 ] } },
{ "type": "Feature", "properties": { "id": 7, "Name": "CATM Range", "Code": 7, "vertex_index": 1, "vertex_part": 0, "vertex_part_ring": 0, "vertex_part_index": 1, "distance": 91.529667203686344, "angle": 75.943238278450821 }, "geometry": { "type": "Point", "coordinates": [ -12465171.22947745770216, 5032986.449633217416704 ] } },
{ "type": "Feature", "properties": { "id": 7, "Name": "CATM Range", "Code": 7, "vertex_index": 2, "vertex_part": 0, "vertex_part_ring": 0, "vertex_part_index": 2, "distance": 227.24615628231976, "angle": 162.59508730108007 }, "geometry": { "type": "Point", "coordinates": [ -12465043.362946597859263, 5032940.962099829688668 ] } },
{ "type": "Feature", "properties": { "id": 7, "Name": "CATM Range", "Code": 7, "vertex_index": 3, "vertex_part": 0, "vertex_part_ring": 0, "vertex_part_index": 3, "distance": 363.81353486706314, "angle": 262.26971906625232 }, "geometry": { "type": "Point", "coordinates": [ -12465122.876587636768818, 5032829.929538019001484 ] } },
{ "type": "Feature", "properties": { "id": 7, "Name": "CATM Range", "Code": 7, "vertex_index": 4, "vertex_part": 0, "vertex_part_ring": 0, "vertex_part_index": 4, "distance": 505.16713585647307, "angle": 355.6178700436231 }, "geometry": { "type": "Point", "coordinates": [ -12465232.834640784189105, 5032918.75558746792376 ] } },
{ "type": "Feature", "properties": { "id": 9, "Name": "Feild Water System", "Code": 9, "vertex_index": 0, "vertex_part": 0, "vertex_part_ring": 0, "vertex_part_index": 0, "distance": 0.0, "angle": 44.852819036825913 }, "geometry": { "type": "Point", "coordinates": [ -12464450.199618313461542, 5028364.831449072808027 ] } },
{ "type": "Feature", "properties": { "id": 9, "Name": "Feild Water System", "Code": 9, "vertex_index": 1, "vertex_part": 0, "vertex_part_ring": 0, "vertex_part_index": 1, "distance": 109.30678486308003, "angle": 136.86288221210293 }, "geometry": { "type": "Point", "coordinates": [ -12464340.897790336981416, 5028365.872418862767518 ] } },
{ "type": "Feature", "properties": { "id": 9, "Name": "Feild Water System", "Code": 9, "vertex_index": 2, "vertex_part": 0, "vertex_part_ring": 0, "vertex_part_index": 2, "distance": 360.87927019583481, "angle": 231.01829401807677 }, "geometry": { "type": "Point", "coordinates": [ -12464359.635246561840177, 5028114.998699412681162 ] } },
{ "type": "Feature", "properties": { "id": 9, "Name": "Feild Water System", "Code": 9, "vertex_index": 3, "vertex_part": 0, "vertex_part_ring": 0, "vertex_part_index": 3, "distance": 453.33239132103921, "angle": 319.00823084279972 }, "geometry": { "type": "Point", "coordinates": [ -12464451.24058810248971, 5028127.490336895920336 ] } },
{ "type": "Feature", "properties": { "id": 9, "Name": "Feild Water System", "Code": 9, "vertex_index": 4, "vertex_part": 0, "vertex_part_ring": 0, "vertex_part_index": 4, "distance": 690.67578631543051, "angle": 44.852819036825913 }, "geometry": { "type": "Point", "coordinates": [ -12464450.199618313461542, 5028364.831449072808027 ] } },
{ "type": "Feature", "properties": { "id": 10, "Name": "Warehouse", "Code": 10, "vertex_index": 0, "vertex_part": 0, "vertex_part_ring": 0, "vertex_part_index": 0, "distance": 0.0, "angle": 44.818686663050293 }, "geometry": { "type": "Point", "coordinates": [ -12468668.85872470587492, 5035182.539492456242442 ] } },
{ "type": "Feature", "properties": { "id": 10, "Name": "Warehouse", "Code": 10, "vertex_index": 1, "vertex_part": 0, "vertex_part_ring": 0, "vertex_part_index": 1, "distance": 25.77735167182982, "angle": 135.55085305828217 }, "geometry": { "type": "Point", "coordinates": [ -12468643.0813730340451, 5035182.539492456242442 ] } },
{ "type": "Feature", "properties": { "id": 10, "Name": "Warehouse", "Code": 10, "vertex_index": 2, "vertex_part": 0, "vertex_part_ring": 0, "vertex_part_index": 2, "distance": 94.529665677995183, "angle": 224.50002589460937 }, "geometry": { "type": "Point", "coordinates": [ -12468644.403288505971432, 5035113.799888000823557 ] } },
{ "type": "Feature", "properties": { "id": 10, "Name": "Warehouse", "Code": 10, "vertex_index": 3, "vertex_part": 0, "vertex_part_ring": 0, "vertex_part_index": 3, "distance": 118.56062816729467, "angle": 313.76785949937749 }, "geometry": { "type": "Point", "coordinates": [ -12468668.418086215853691, 5035112.9186110207811 ] } },
{ "type": "Feature", "properties": { "id": 10, "Name": "Warehouse", "Code": 10, "vertex_index": 4, "vertex_part": 0, "vertex_part_ring": 0, "vertex_part_index": 4, "distance": 188.18290401439299, "angle": 44.818686663050293 }, "geometry": { "type": "Point", "coordinates": [ -12468668.85872470587492, 5035182.539492456242442 ] } },
{ "type": "Feature", "properties": { "id": 12, "Name": "Histoic Landfill", "Code": 12, "vertex_index": 0, "vertex_part": 0, "vertex_part_ring": 0, "vertex_part_index": 0, "distance": 0.0, "angle": 36.072111384892793 }, "geometry": { "type": "Point", "coordinates": [ -12463156.13401684910059, 5031210.511530598625541 ] } },
{ "type": "Feature", "properties": { "id": 12, "Name": "Histoic Landfill", "Code": 12, "vertex_index": 1, "vertex_part": 0, "vertex_part_ring": 0, "vertex_part_index": 1, "distance": 471.74771100229714, "angle": 102.5799252632646 }, "geometry": { "type": "Point", "coordinates": [ -12462695.531345512717962, 5031312.448187369853258 ] } },
{ "type": "Feature", "properties": { "id": 12, "Name": "Histoic Landfill", "Code": 12, "vertex_index": 2, "vertex_part": 0, "vertex_part_ring": 0, "vertex_part_index": 2, "distance": 1034.3377137618036, "angle": 145.64537539046157 }, "geometry": { "type": "Point", "coordinates": [ -12462250.030401106923819, 5030968.883899734355509 ] } },
{ "type": "Feature", "properties": { "id": 12, "Name": "Histoic Landfill", "Code": 12, "vertex_index": 3, "vertex_part": 0, "vertex_part_ring": 0, "vertex_part_index": 3, "distance": 1329.4258057434763, "angle": 212.98643232254608 }, "geometry": { "type": "Point", "coordinates": [ -12462166.970902996137738, 5030685.726519814692438 ] } },
{ "type": "Feature", "properties": { "id": 12, "Name": "Histoic Landfill", "Code": 12, "vertex_index": 4, "vertex_part": 0, "vertex_part_ring": 0, "vertex_part_index": 4, "distance": 1668.4797551812665, "angle": 309.9157416352503 }, "geometry": { "type": "Point", "coordinates": [ -12462502.984327167272568, 5030640.421339027583599 ] } },
{ "type": "Feature", "properties": { "id": 12, "Name": "Histoic Landfill", "Code": 12, "vertex_index": 5, "vertex_part": 0, "vertex_part_ring": 0, "vertex_part_index": 5, "distance": 2103.0645836503945, "angle": 305.24161987141684 }, "geometry": { "type": "Point", "coordinates": [ -12462521.86148582957685, 5031074.595988237299025 ] } },
{ "type": "Feature", "properties": { "id": 12, "Name": "Histoic Landfill", "Code": 12, "vertex_index": 6, "vertex_part": 0, "vertex_part_ring": 0, "vertex_part_index": 6, "distance": 2734.8264274662647, "angle": 303.79804361834334 }, "geometry": { "type": "Point", "coordinates": [ -12463125.930562989786267, 5030889.599833357147872 ] } },
{ "type": "Feature", "properties": { "id": 12, "Name": "Histoic Landfill", "Code": 12, "vertex_index": 7, "vertex_part": 0, "vertex_part_ring": 0, "vertex_part_index": 7, "distance": 3057.1563299752283, "angle": 36.072111384892793 }, "geometry": { "type": "Point", "coordinates": [ -12463156.13401684910059, 5031210.511530598625541 ] } },
{ "type": "Feature", "properties": { "id": 11, "Name": "Cryogenics Shop", "Code": 11, "vertex_index": 0, "vertex_part": 0, "vertex_part_ring": 0, "vertex_part_index": 0, "distance": 0.0, "angle": 44.052571667078681 }, "geometry": { "type": "Point", "coordinates": [ -12467022.648039640858769, 5029788.825518919155002 ] } },
{ "type": "Feature", "properties": { "id": 11, "Name": "Cryogenics Shop", "Code": 11, "vertex_index": 1, "vertex_part": 0, "vertex_part_ring": 0, "vertex_part_index": 1, "distance": 102.91947393898297, "angle": 132.04790087099929 }, "geometry": { "type": "Point", "coordinates": [ -12466919.767524937167764, 5029791.657092718407512 ] } },
{ "type": "Feature", "properties": { "id": 11, "Name": "Cryogenics Shop", "Code": 11, "vertex_index": 2, "vertex_part": 0, "vertex_part_ring": 0, "vertex_part_index": 2, "distance": 190.4759706547286, "angle": 222.71215983461136 }, "geometry": { "type": "Point", "coordinates": [ -12466913.160519406199455, 5029704.350233909673989 ] } },
{ "type": "Feature", "properties": { "id": 11, "Name": "Cryogenics Shop", "Code": 11, "vertex_index": 3, "vertex_part": 0, "vertex_part_ring": 0, "vertex_part_index": 3, "distance": 299.49258341057009, "angle": 314.71683063069077 }, "geometry": { "type": "Point", "coordinates": [ -12467022.176110675558448, 5029703.878304943442345 ] } },
{ "type": "Feature", "properties": { "id": 11, "Name": "Cryogenics Shop", "Code": 11, "vertex_index": 4, "vertex_part": 0, "vertex_part_ring": 0, "vertex_part_index": 4, "distance": 384.4411082899569, "angle": 44.052571667078681 }, "geometry": { "type": "Point", "coordinates": [ -12467022.648039640858769, 5029788.825518919155002 ] } },
{ "type": "Feature", "properties": { "id": 22, "Name": "Medical X ray", "Code": 22, "vertex_index": 0, "vertex_part": 0, "vertex_part_ring": 0, "vertex_part_index": 0, "distance": 0.0, "angle": 44.255253389334321 }, "geometry": { "type": "Point", "coordinates": [ -12465674.11101777292788, 5027985.11300883255899 ] } },
{ "type": "Feature", "properties": { "id": 22, "Name": "Medical X ray", "Code": 22, "vertex_index": 1, "vertex_part": 0, "vertex_part_ring": 0, "vertex_part_index": 1, "distance": 119.87831815389563, "angle": 133.42720992884261 }, "geometry": { "type": "Point", "coordinates": [ -12465554.241060273721814, 5027983.697221932932734 ] } },
{ "type": "Feature", "properties": { "id": 22, "Name": "Medical X ray", "Code": 22, "vertex_index": 2, "vertex_part": 0, "vertex_part_ring": 0, "vertex_part_index": 2, "distance": 339.34152540684642, "angle": 227.73363321234604 }, "geometry": { "type": "Point", "coordinates": [ -12465539.611262312158942, 5027764.722181461751461 ] } },
{ "type": "Feature", "properties": { "id": 22, "Name": "Medical X ray", "Code": 22, "vertex_index": 3, "vertex_part": 0, "vertex_part_ring": 0, "vertex_part_index": 3, "distance": 467.97745037931259, "angle": 318.56167667283773 }, "geometry": { "type": "Point", "coordinates": [ -12465666.560154309496284, 5027785.487055989913642 ] } },
{ "type": "Feature", "properties": { "id": 22, "Name": "Medical X ray", "Code": 22, "vertex_index": 4, "vertex_part": 0, "vertex_part_ring": 0, "vertex_part_index": 4, "distance": 667.74615810746866, "angle": 44.255253389334321 }, "geometry": { "type": "Point", "coordinates": [ -12465674.11101777292788, 5027985.11300883255899 ] } },
{ "type": "Feature", "properties": { "id": 21, "Name": "Feild Training Area", "Code": 21, "vertex_index": 0, "vertex_part": 0, "vertex_part_ring": 0, "vertex_part_index": 0, "distance": 0.0, "angle": 38.94425647956939 }, "geometry": { "type": "Point", "coordinates": [ -12462567.16666660271585, 5030617.4148019105196 ] } },
{ "type": "Feature", "properties": { "id": 21, "Name": "Feild Training Area", "Code": 21, "vertex_index": 1, "vertex_part": 0, "vertex_part_ring": 0, "vertex_part_index": 1, "distance": 376.38310029636142, "angle": 132.03646574963227 }, "geometry": { "type": "Point", "coordinates": [ -12462195.286640975624323, 5030675.462064794264734 ] } },
{ "type": "Feature", "properties": { "id": 21, "Name": "Feild Training Area", "Code": 21, "vertex_index": 2, "vertex_part": 0, "vertex_part_ring": 0, "vertex_part_index": 2, "distance": 606.0438298220073, "angle": 222.0700335237598 }, "geometry": { "type": "Point", "coordinates": [ -12462207.084865137934685, 5030446.104587059468031 ] } },
{ "type": "Feature", "properties": { "id": 21, "Name": "Feild Training Area", "Code": 21, "vertex_index": 3, "vertex_part": 0, "vertex_part_ring": 0, "vertex_part_index": 3, "distance": 957.52542269116861, "angle": 308.97782425369695 }, "geometry": { "type": "Point", "coordinates": [ -12462554.424584506079555, 5030392.304684874601662 ] } },
{ "type": "Feature", "properties": { "id": 21, "Name": "Feild Training Area", "Code": 21, "vertex_index": 4, "vertex_part": 0, "vertex_part_ring": 0, "vertex_part_index": 4, "distance": 1182.995876294478, "angle": 38.94425647956939 }, "geometry": { "type": "Point", "coordinates": [ -12462567.16666660271585, 5030617.4148019105196 ] } },
{ "type": "Feature", "properties": { "id": 13, "Name": "Battery Storage", "Code": 13, "vertex_index": 0, "vertex_part": 0, "vertex_part_ring": 0, "vertex_part_index": 0, "distance": 0.0, "angle": 46.210924393180221 }, "geometry": { "type": "Point", "coordinates": [ -12467792.010237330570817, 5030099.118814416229725 ] } },
{ "type": "Feature", "properties": { "id": 13, "Name": "Battery Storage", "Code": 13, "vertex_index": 1, "vertex_part": 0, "vertex_part_ring": 0, "vertex_part_index": 1, "distance": 186.96965632444633, "angle": 138.2804607579713 }, "geometry": { "type": "Point", "coordinates": [ -12467605.126366583630443, 5030093.455666817724705 ] } },
{ "type": "Feature", "properties": { "id": 13, "Name": "Battery Storage", "Code": 13, "vertex_index": 2, "vertex_part": 0, "vertex_part_ring": 0, "vertex_part_index": 2, "distance": 332.84075473171094, "angle": 226.34072803080139 }, "geometry": { "type": "Point", "coordinates": [ -12467617.396519713103771, 5029948.101545126177371 ] } },
{ "type": "Feature", "properties": { "id": 13, "Name": "Battery Storage", "Code": 13, "vertex_index": 3, "vertex_part": 0, "vertex_part_ring": 0, "vertex_part_index": 3, "distance": 509.4658054562284, "angle": 314.27119166601034 }, "geometry": { "type": "Point", "coordinates": [ -12467793.897953195497394, 5029941.49453959427774 ] } },
{ "type": "Feature", "properties": { "id": 13, "Name": "Battery Storage", "Code": 13, "vertex_index": 4, "vertex_part": 0, "vertex_part_ring": 0, "vertex_part_index": 4, "distance": 667.10138356070627, "angle": 46.210924393180221 }, "geometry": { "type": "Point", "coordinates": [ -12467792.010237330570817, 5030099.118814416229725 ] } },
{ "type": "Feature", "properties": { "id": 14, "Name": "Satellite Comms Dish", "Code": 14, "vertex_index": 0, "vertex_part": 0, "vertex_part_ring": 0, "vertex_part_index": 0, "distance": 0.0, "angle": 241.22305563600912 }, "geometry": { "type": "Point", "coordinates": [ -12465412.780352558940649, 5030380.624442951753736 ] } },
{ "type": "Feature", "properties": { "id": 14, "Name": "Satellite Comms Dish", "Code": 14, "vertex_index": 1, "vertex_part": 0, "vertex_part_ring": 0, "vertex_part_index": 1, "distance": 4.4521689659631898, "angle": 257.23828774435435 }, "geometry": { "type": "Point", "coordinates": [ -12465415.139997391030192, 5030376.849011219106615 ] } },
{ "type": "Feature", "properties": { "id": 14, "Name": "Satellite Comms Dish", "Code": 14, "vertex_index": 2, "vertex_part": 0, "vertex_part_ring": 0, "vertex_part_index": 2, "distance": 10.605369874876081, "angle": 318.92381375208294 }, "geometry": { "type": "Point", "coordinates": [ -12465420.331216024234891, 5030380.152513985522091 ] } },
{ "type": "Feature", "properties": { "id": 14, "Name": "Satellite Comms Dish", "Code": 14, "vertex_index": 3, "vertex_part": 0, "vertex_part_ring": 0, "vertex_part_index": 3, "distance": 23.06465210729656, "angle": 354.50171503619083 }, "geometry": { "type": "Point", "coordinates": [ -12465425.522434655576944, 5030391.478809181600809 ] } },
{ "type": "Feature", "properties": { "id": 14, "Name": "Satellite Comms Dish", "Code": 14, "vertex_index": 4, "vertex_part": 0, "vertex_part_ring": 0, "vertex_part_index": 4, "distance": 39.089403048400101, "angle": 31.362139231530751 }, "geometry": { "type": "Point", "coordinates": [ -12465421.747002923861146, 5030407.052465077489614 ] } },
{ "type": "Feature", "properties": { "id": 14, "Name": "Satellite Comms Dish", "Code": 14, "vertex_index": 5, "vertex_part": 0, "vertex_part_ring": 0, "vertex_part_index": 5, "distance": 272.61175852601014, "angle": 56.844782748391282 }, "geometry": { "type": "Point", "coordinates": [ -12465245.245569439604878, 5030559.957450234331191 ] } },
{ "type": "Feature", "properties": { "id": 14, "Name": "Satellite Comms Dish", "Code": 14, "vertex_index": 6, "vertex_part": 0, "vertex_part_ring": 0, "vertex_part_index": 6, "distance": 314.40878894094158, "angle": 73.271610095105217 }, "geometry": { "type": "Point", "coordinates": [ -12465207.491252116858959, 5030577.890750962309539 ] } },
{ "type": "Feature", "properties": { "id": 14, "Name": "Satellite Comms Dish", "Code": 14, "vertex_index": 7, "vertex_part": 0, "vertex_part_ring": 0, "vertex_part_index": 7, "distance": 361.59460612772097, "angle": 94.825683042851836 }, "geometry": { "type": "Point", "coordinates": [ -12465160.770284431055188, 5030584.497756493277848 ] } },
{ "type": "Feature", "properties": { "id": 14, "Name": "Satellite Comms Dish", "Code": 14, "vertex_index": 8, "vertex_part": 0, "vertex_part_ring": 0, "vertex_part_index": 8, "distance": 384.87749802173863, "angle": 130.19895063557269 }, "geometry": { "type": "Point", "coordinates": [ -12465138.589623004198074, 5030577.418821996077895 ] } },
{ "type": "Feature", "properties": { "id": 14, "Name": "Satellite Comms Dish", "Code": 14, "vertex_index": 9, "vertex_part": 0, "vertex_part_ring": 0, "vertex_part_index": 9, "distance": 647.2381717421722, "angle": 169.91124491785405 }, "geometry": { "type": "Point", "coordinates": [ -12465018.247736537829041, 5030344.285912528634071 ] } },
{ "type": "Feature", "properties": { "id": 14, "Name": "Satellite Comms Dish", "Code": 14, "vertex_index": 10, "vertex_part": 0, "vertex_part_ring": 0, "vertex_part_index": 10, "distance": 662.45742361023497, "angle": 213.08062990888735 }, "geometry": { "type": "Point", "coordinates": [ -12465020.135452404618263, 5030329.184185599908233 ] } },
{ "type": "Feature", "properties": { "id": 14, "Name": "Satellite Comms Dish", "Code": 14, "vertex_index": 11, "vertex_part": 0, "vertex_part_ring": 0, "vertex_part_index": 11, "distance": 673.46460401646641, "angle": 247.77025509307603 }, "geometry": { "type": "Point", "coordinates": [ -12465029.574031734839082, 5030323.521038001403213 ] } },
{ "type": "Feature", "properties": { "id": 14, "Name": "Satellite Comms Dish", "Code": 14, "vertex_index": 12, "vertex_part": 0, "vertex_part_ring": 0, "vertex_part_index": 12, "distance": 685.59786011731126, "angle": 265.29494175079259 }, "geometry": { "type": "Point", "coordinates": [ -12465041.372255899012089, 5030320.689464202150702 ] } },
{ "type": "Feature", "properties": { "id": 14, "Name": "Satellite Comms Dish", "Code": 14, "vertex_index": 13, "vertex_part": 0, "vertex_part_ring": 0, "vertex_part_index": 13, "distance": 698.84553750406155, "angle": 278.30721224542413 }, "geometry": { "type": "Point", "coordinates": [ -12465054.586266960948706, 5030321.633322135545313 ] } },
{ "type": "Feature", "properties": { "id": 14, "Name": "Satellite Comms Dish", "Code": 14, "vertex_index": 14, "vertex_part": 0, "vertex_part_ring": 0, "vertex_part_index": 14, "distance": 711.89844776721873, "angle": 303.40070474314155 }, "geometry": { "type": "Point", "coordinates": [ -12465067.328349057585001, 5030324.464895934797823 ] } },
{ "type": "Feature", "properties": { "id": 14, "Name": "Satellite Comms Dish", "Code": 14, "vertex_index": 15, "vertex_part": 0, "vertex_part_ring": 0, "vertex_part_index": 15, "distance": 778.17044972191957, "angle": 297.35666492497967 }, "geometry": { "type": "Point", "coordinates": [ -12465106.026524312794209, 5030378.26479811873287 ] } },
{ "type": "Feature", "properties": { "id": 14, "Name": "Satellite Comms Dish", "Code": 14, "vertex_index": 16, "vertex_part": 0, "vertex_part_ring": 0, "vertex_part_index": 16, "distance": 1084.9333533908675, "angle": 241.22305563600912 }, "geometry": { "type": "Point", "coordinates": [ -12465412.780352558940649, 5030380.624442951753736 ] } },
{ "type": "Feature", "properties": { "id": 15, "Name": "Pest Control", "Code": 15, "vertex_index": 0, "vertex_part": 0, "vertex_part_ring": 0, "vertex_part_index": 0, "distance": 0.0, "angle": 44.915623105468747 }, "geometry": { "type": "Point", "coordinates": [ -12465490.41266755759716, 5028631.419728498905897 ] } },
{ "type": "Feature", "properties": { "id": 15, "Name": "Pest Control", "Code": 15, "vertex_index": 1, "vertex_part": 0, "vertex_part_ring": 0, "vertex_part_index": 1, "distance": 431.8173253325877, "angle": 135.39483931544387 }, "geometry": { "type": "Point", "coordinates": [ -12465058.5976631809026, 5028630.003941599279642 ] } },
{ "type": "Feature", "properties": { "id": 15, "Name": "Pest Control", "Code": 15, "vertex_index": 2, "vertex_part": 0, "vertex_part_ring": 0, "vertex_part_index": 2, "distance": 656.46790615210602, "angle": 225.20615651521723 }, "geometry": { "type": "Point", "coordinates": [ -12465060.957308012992144, 5028405.365753530524671 ] } },
{ "type": "Feature", "properties": { "id": 15, "Name": "Pest Control", "Code": 15, "vertex_index": 3, "vertex_part": 0, "vertex_part_ring": 0, "vertex_part_index": 3, "distance": 1084.5098202243628, "angle": 314.72694030524207 }, "geometry": { "type": "Point", "coordinates": [ -12465488.996880657970905, 5028403.949966630898416 ] } },
{ "type": "Feature", "properties": { "id": 15, "Name": "Pest Control", "Code": 15, "vertex_index": 4, "vertex_part": 0, "vertex_part_ring": 0, "vertex_part_index": 4, "distance": 1311.983988025529, "angle": 44.915623105468747 }, "geometry": { "type": "Point", "coordinates": [ -12465490.41266755759716, 5028631.419728498905897 ] } },
{ "type": "Feature", "properties": { "id": 17, "Name": "Paint Shop", "Code": 17, "vertex_index": 0, "vertex_part": 0, "vertex_part_ring": 0, "vertex_part_index": 0, "distance": 0.0, "angle": 20.621465235389248 }, "geometry": { "type": "Point", "coordinates": [ -12464148.010722260922194, 5031333.213061897084117 ] } },
{ "type": "Feature", "properties": { "id": 17, "Name": "Paint Shop", "Code": 17, "vertex_index": 1, "vertex_part": 0, "vertex_part_ring": 0, "vertex_part_index": 1, "distance": 147.81249183016484, "angle": 115.51177823723864 }, "geometry": { "type": "Point", "coordinates": [ -12464009.26360610127449, 5031384.181390282697976 ] } },
{ "type": "Feature", "properties": { "id": 17, "Name": "Paint Shop", "Code": 17, "vertex_index": 2, "vertex_part": 0, "vertex_part_ring": 0, "vertex_part_index": 2, "distance": 332.27334043935201, "angle": 207.18127056412081 }, "geometry": { "type": "Point", "coordinates": [ -12463949.800556318834424, 5031209.56767266523093 ] } },
{ "type": "Feature", "properties": { "id": 17, "Name": "Paint Shop", "Code": 17, "vertex_index": 3, "vertex_part": 0, "vertex_part_ring": 0, "vertex_part_index": 3, "distance": 449.61959538830104, "angle": 292.29095756227139 }, "geometry": { "type": "Point", "coordinates": [ -12464062.119650352746248, 5031175.588787075132132 ] } },
{ "type": "Feature", "properties": { "id": 17, "Name": "Paint Shop", "Code": 17, "vertex_index": 4, "vertex_part": 0, "vertex_part_ring": 0, "vertex_part_index": 4, "distance": 629.12638703330174, "angle": 20.621465235389248 }, "geometry": { "type": "Point", "coordinates": [ -12464148.010722260922194, 5031333.213061897084117 ] } },
{ "type": "Feature", "properties": { "id": 18, "Name": "Chemical Lab", "Code": 18, "vertex_index": 0, "vertex_part": 0, "vertex_part_ring": 0, "vertex_part_index": 0, "distance": 0.0, "angle": 44.365832985168097 }, "geometry": { "type": "Point", "coordinates": [ -12465114.049316754564643, 5028722.030090075917542 ] } },
{ "type": "Feature", "properties": { "id": 18, "Name": "Chemical Lab", "Code": 18, "vertex_index": 1, "vertex_part": 0, "vertex_part_ring": 0, "vertex_part_index": 1, "distance": 63.962045961473699, "angle": 134.36583298516811 }, "geometry": { "type": "Point", "coordinates": [ -12465050.102941790595651, 5028723.445876975543797 ] } },
{ "type": "Feature", "properties": { "id": 18, "Name": "Chemical Lab", "Code": 18, "vertex_index": 2, "vertex_part": 0, "vertex_part_ring": 0, "vertex_part_index": 2, "distance": 106.19968846667987, "angle": 224.47150111172604 }, "geometry": { "type": "Point", "coordinates": [ -12465050.102941790595651, 5028681.208234470337629 ] } },
{ "type": "Feature", "properties": { "id": 18, "Name": "Chemical Lab", "Code": 18, "vertex_index": 3, "vertex_part": 0, "vertex_part_ring": 0, "vertex_part_index": 3, "distance": 170.15694647518052, "angle": 314.47150111172607 }, "geometry": { "type": "Point", "coordinates": [ -12465114.049316754564643, 5028680.028412054292858 ] } },
{ "type": "Feature", "properties": { "id": 18, "Name": "Chemical Lab", "Code": 18, "vertex_index": 4, "vertex_part": 0, "vertex_part_ring": 0, "vertex_part_index": 4, "distance": 212.1586244968052, "angle": 44.365832985168097 }, "geometry": { "type": "Point", "coordinates": [ -12465114.049316754564643, 5028722.030090075917542 ] } },
{ "type": "Feature", "properties": { "id": 19, "Name": "Mechanical Shop", "Code": 19, "vertex_index": 0, "vertex_part": 0, "vertex_part_ring": 0, "vertex_part_index": 0, "distance": 0.0, "angle": 18.911747024375881 }, "geometry": { "type": "Point", "coordinates": [ -12464348.108604073524475, 5027978.977932270616293 ] } },
{ "type": "Feature", "properties": { "id": 19, "Name": "Mechanical Shop", "Code": 19, "vertex_index": 1, "vertex_part": 0, "vertex_part_ring": 0, "vertex_part_index": 1, "distance": 118.62702243166287, "angle": 108.63995005454881 }, "geometry": { "type": "Point", "coordinates": [ -12464242.868444537743926, 5028033.721692388877273 ] } },
{ "type": "Feature", "properties": { "id": 19, "Name": "Mechanical Shop", "Code": 19, "vertex_index": 2, "vertex_part": 0, "vertex_part_ring": 0, "vertex_part_index": 2, "distance": 237.05956881478272, "angle": 199.14921020407445 }, "geometry": { "type": "Point", "coordinates": [ -12464192.372045118361712, 5027926.593816985376179 ] } },
{ "type": "Feature", "properties": { "id": 19, "Name": "Mechanical Shop", "Code": 19, "vertex_index": 3, "vertex_part": 0, "vertex_part_ring": 0, "vertex_part_index": 3, "distance": 356.72683424596323, "angle": 289.4210071739015 }, "geometry": { "type": "Point", "coordinates": [ -12464299.499920520931482, 5027873.265843767672777 ] } },
{ "type": "Feature", "properties": { "id": 19, "Name": "Mechanical Shop", "Code": 19, "vertex_index": 4, "vertex_part": 0, "vertex_part_ring": 0, "vertex_part_index": 4, "distance": 473.07910011289977, "angle": 18.911747024375881 }, "geometry": { "type": "Point", "coordinates": [ -12464348.108604073524475, 5027978.977932270616293 ] } },
{ "type": "Feature", "properties": { "id": 23, "Name": "HazMat Storage Area", "Code": 23, "vertex_index": 0, "vertex_part": 0, "vertex_part_ring": 0, "vertex_part_index": 0, "distance": 0.0, "angle": 12.52084198310633 }, "geometry": { "type": "Point", "coordinates": [ -12469319.644302006810904, 5029583.300453999079764 ] } },
{ "type": "Feature", "properties": { "id": 23, "Name": "HazMat Storage Area", "Code": 23, "vertex_index": 1, "vertex_part": 0, "vertex_part_ring": 0, "vertex_part_index": 1, "distance": 74.946123750084823, "angle": 103.5164489151495 }, "geometry": { "type": "Point", "coordinates": [ -12469255.461962558329105, 5029621.998629254288971 ] } },
{ "type": "Feature", "properties": { "id": 23, "Name": "HazMat Storage Area", "Code": 23, "vertex_index": 2, "vertex_part": 0, "vertex_part_ring": 0, "vertex_part_index": 2, "distance": 166.09074627107412, "angle": 196.77661591646563 }, "geometry": { "type": "Point", "coordinates": [ -12469207.325207972899079, 5029544.602278742939234 ] } },
{ "type": "Feature", "properties": { "id": 23, "Name": "HazMat Storage Area", "Code": 23, "vertex_index": 3, "vertex_part": 0, "vertex_part_ring": 0, "vertex_part_index": 3, "distance": 238.73715591419452, "angle": 285.78100898442244 }, "geometry": { "type": "Point", "coordinates": [ -12469273.395263286307454, 5029514.398824885487556 ] } },
{ "type": "Feature", "properties": { "id": 23, "Name": "HazMat Storage Area", "Code": 23, "vertex_index": 4, "vertex_part": 0, "vertex_part_ring": 0, "vertex_part_index": 4, "distance": 321.72154045175461, "angle": 12.52084198310633 }, "geometry": { "type": "Point", "coordinates": [ -12469319.644302006810904, 5029583.300453999079764 ] } },
{ "type": "Feature", "properties": { "id": 5, "Name": "Municiapl water system", "Code": 5, "vertex_index": 0, "vertex_part": 0, "vertex_part_ring": 0, "vertex_part_index": 0, "distance": 0.0, "angle": 337.88194923048422 }, "geometry": { "type": "Point", "coordinates": [ -12470018.80706593208015, 5036557.938650381751359 ] } },
{ "type": "Feature", "properties": { "id": 5, "Name": "Municiapl water system", "Code": 5, "vertex_index": 1, "vertex_part": 0, "vertex_part_ring": 0, "vertex_part_index": 1, "distance": 260.28583189994492, "angle": 67.841769888271926 }, "geometry": { "type": "Point", "coordinates": [ -12469913.094977429136634, 5036795.790849514305592 ] } },
{ "type": "Feature", "properties": { "id": 5, "Name": "Municiapl water system", "Code": 5, "vertex_index": 2, "vertex_part": 0, "vertex_part_ring": 0, "vertex_part_index": 2, "distance": 385.25347769576319, "angle": 88.604032497771442 }, "geometry": { "type": "Point", "coordinates": [ -12469797.000451661646366, 5036749.541810793802142 ] } },
{ "type": "Feature", "properties": { "id": 5, "Name": "Municiapl water system", "Code": 5, "vertex_index": 3, "vertex_part": 0, "vertex_part_ring": 0, "vertex_part_index": 3, "distance": 644.59293721460187, "angle": 104.04947589515869 }, "geometry": { "type": "Point", "coordinates": [ -12469561.035968394950032, 5036857.141615162603557 ] } },
{ "type": "Feature", "properties": { "id": 5, "Name": "Municiapl water system", "Code": 5, "vertex_index": 4, "vertex_part": 0, "vertex_part_ring": 0, "vertex_part_index": 4, "distance": 790.7081204581242, "angle": 190.4945894262614 }, "geometry": { "type": "Point", "coordinates": [ -12469472.313322687521577, 5036741.047089396044612 ] } },
{ "type": "Feature", "properties": { "id": 5, "Name": "Municiapl water system", "Code": 5, "vertex_index": 5, "vertex_part": 0, "vertex_part_ring": 0, "vertex_part_index": 5, "distance": 1255.1447313581484, "angle": 265.08932537108649 }, "geometry": { "type": "Point", "coordinates": [ -12469867.789796641096473, 5036497.531742664985359 ] } },
{ "type": "Feature", "properties": { "id": 5, "Name": "Municiapl water system", "Code": 5, "vertex_index": 6, "vertex_part": 0, "vertex_part_ring": 0, "vertex_part_index": 6, "distance": 1417.7953081293588, "angle": 337.88194923048422 }, "geometry": { "type": "Point", "coordinates": [ -12470018.80706593208015, 5036557.938650381751359 ] } },
{ "type": "Feature", "properties": { "id": 25, "Name": "'arthropod Vectors", "Code": 25, "vertex_index": 0, "vertex_part": 0, "vertex_part_ring": 0, "vertex_part_index": 0, "distance": 0.0, "angle": 270.89795595323324 }, "geometry": { "type": "Point", "coordinates": [ -12465231.323664953932166, 5028297.52998468093574 ] } },
{ "type": "Feature", "properties": { "id": 25, "Name": "'arthropod Vectors", "Code": 25, "vertex_index": 1, "vertex_part": 0, "vertex_part_ring": 0, "vertex_part_index": 1, "distance": 38.272828175250737, "angle": 271.23781056801386 }, "geometry": { "type": "Point", "coordinates": [ -12465233.211380818858743, 5028259.303738391958177 ] } },
{ "type": "Feature", "properties": { "id": 25, "Name": "'arthropod Vectors", "Code": 25, "vertex_index": 2, "vertex_part": 0, "vertex_part_ring": 0, "vertex_part_index": 2, "distance": 115.19869734068683, "angle": 44.558505533405132 }, "geometry": { "type": "Point", "coordinates": [ -12465233.683309786021709, 5028336.228159936144948 ] } },
{ "type": "Feature", "properties": { "id": 25, "Name": "'arthropod Vectors", "Code": 25, "vertex_index": 3, "vertex_part": 0, "vertex_part_ring": 0, "vertex_part_index": 3, "distance": 369.57935461640358, "angle": 134.1565630044455 }, "geometry": { "type": "Point", "coordinates": [ -12464979.31359682418406, 5028338.587804769165814 ] } },
{ "type": "Feature", "properties": { "id": 25, "Name": "'arthropod Vectors", "Code": 25, "vertex_index": 4, "vertex_part": 0, "vertex_part_ring": 0, "vertex_part_index": 4, "distance": 650.43419126784988, "angle": 224.84905838675488 }, "geometry": { "type": "Point", "coordinates": [ -12464973.65044922567904, 5028057.790069682523608 ] } },
{ "type": "Feature", "properties": { "id": 25, "Name": "'arthropod Vectors", "Code": 25, "vertex_index": 5, "vertex_part": 0, "vertex_part_ring": 0, "vertex_part_index": 5, "distance": 903.8881671335489, "angle": 314.91114630093381 }, "geometry": { "type": "Point", "coordinates": [ -12465227.076304255053401, 5028061.565501414239407 ] } },
{ "type": "Feature", "properties": { "id": 25, "Name": "'arthropod Vectors", "Code": 25, "vertex_index": 6, "vertex_part": 0, "vertex_part_ring": 0, "vertex_part_index": 6, "distance": 1139.8908735507114, "angle": 270.89795595323324 }, "geometry": { "type": "Point", "coordinates": [ -12465231.323664953932166, 5028297.52998468093574 ] } }
]
}
