{
"type": "FeatureCollection",
"name": "HillAFBVector",
"crs": { "type": "name", "properties": { "name": "urn:ogc:def:crs:EPSG::3857" } },
"features": [
{ "type": "Feature", "properties": { "id": 10, "Name": "Warehouse", "Code": 10 }, "geometry": { "type": "MultiPolygon", "coordinates": [ [ [ [ -12468670.180640177801251, 5035182.980130947194993 ], [ -12468643.301692282781005, 5035183.200450192205608 ], [ -12468644.182969262823462, 5035113.79988800175488 ], [ -12468671.282236402854323, 5035116.003080452792346 ], [ -12468670.180640177801251, 5035182.759811702184379 ], [ -12468670.180640177801251, 5035182.980130947194993 ] ] ] ] } },
{ "type": "Feature", "properties": { "id": 1, "Name": "Engine Testing Pad1", "Code": 1 }, "geometry": { "type": "MultiPolygon", "coordinates": [ [ [ [ -12465740.658960547298193, 5030469.897033295594156 ], [ -12465080.194302469491959, 5030492.103545661084354 ], [ -12465609.568903684616089, 5030041.526246385648847 ], [ -12465739.942621439695358, 5030037.228211734443903 ], [ -12465740.658960547298193, 5030469.897033295594156 ] ] ] ] } },
{ "type": "Feature", "properties": { "id": 2, "Name": "Aircraft Fuel Tanks", "Code": 2 }, "geometry": { "type": "MultiPolygon", "coordinates": [ [ [ [ -12465625.686533629894257, 5030003.023019301705062 ], [ -12465502.47620696015656, 5030003.73935841023922 ], [ -12465490.298442116007209, 5029705.74228925537318 ], [ -12465612.076090568676591, 5029699.295237278565764 ], [ -12465625.686533629894257, 5030003.023019301705062 ] ] ] ] } },
{ "type": "Feature", "properties": { "id": 3, "Name": "Legacy burn Pit", "Code": 3 }, "geometry": { "type": "MultiPolygon", "coordinates": [ [ [ [ -12466394.095040997490287, 5033533.019851706922054 ], [ -12466268.019357908517122, 5033535.168869032524526 ], [ -12466272.317392559722066, 5033415.540237919427454 ], [ -12466397.676736539229751, 5033432.732376522384584 ], [ -12466394.095040997490287, 5033533.019851706922054 ] ] ] ] } },
{ "type": "Feature", "properties": { "id": 4, "Name": "Welding Shop", "Code": 4 }, "geometry": { "type": "MultiPolygon", "coordinates": [ [ [ [ -12464148.01376642473042, 5031122.180582189932466 ], [ -12464020.863574672490358, 5031184.860254179686308 ], [ -12463955.676715804263949, 5031037.294397837482393 ], [ -12464083.543246664106846, 5030978.912760498002172 ], [ -12464148.01376642473042, 5031122.180582189932466 ] ] ] ] } },
{ "type": "Feature", "properties": { "id": 5, "Name": "Municiapl water system", "Code": 5 }, "geometry": { "type": "MultiPolygon", "coordinates": [ [ [ [ -12469849.601885734125972, 5036443.372642956674099 ], [ -12469743.889797231182456, 5036681.224842089228332 ], [ -12469627.795271463692188, 5036634.975803368724883 ], [ -12469391.830788196995854, 5036742.575607737526298 ], [ -12469303.108142489567399, 5036626.481081970967352 ], [ -12469698.584616443142295, 5036382.965735239908099 ], [ -12469849.601885734125972, 5036443.372642956674099 ] ] ] ] } },
{ "type": "Feature", "properties": { "id": 6, "Name": "Forest Fire", "Code": 6 }, "geometry": { "type": "MultiPolygon", "coordinates": [ [ [ [ -12464161.266039902344346, 5032795.548739543184638 ], [ -12463780.173634201288223, 5032744.688662842847407 ], [ -12463747.938374321907759, 5032660.160648045130074 ], [ -12464045.219104330986738, 5032632.939761923626065 ], [ -12464165.564074551686645, 5032680.218143082223833 ], [ -12464161.266039902344346, 5032795.548739543184638 ] ] ] ] } },
{ "type": "Feature", "properties": { "id": 7, "Name": "CATM Range", "Code": 7 }, "geometry": { "type": "MultiPolygon", "coordinates": [ [ [ [ -12465063.629460586234927, 5032804.189580042846501 ], [ -12465002.024297259747982, 5032871.883625792339444 ], [ -12464874.157766399905086, 5032826.396092404611409 ], [ -12464953.67140743881464, 5032715.363530593924224 ], [ -12465063.629460586234927, 5032804.189580042846501 ] ] ] ] } },
{ "type": "Feature", "properties": { "id": 8, "Name": "Fuel truck refueling", "Code": 8 }, "geometry": { "type": "MultiPolygon", "coordinates": [ [ [ [ -12467211.437963724136353, 5029577.753464350476861 ], [ -12467020.175421765074134, 5029588.498550977557898 ], [ -12466989.372840102761984, 5029349.241288752295077 ], [ -12467204.27457263879478, 5029345.659593210555613 ], [ -12467211.437963724136353, 5029577.753464350476861 ] ] ] ] } },
{ "type": "Feature", "properties": { "id": 9, "Name": "Feild Water System", "Code": 9 }, "geometry": { "type": "MultiPolygon", "coordinates": [ [ [ [ -12464280.994438115507364, 5028250.265441647730768 ], [ -12464171.692610139027238, 5028251.306411437690258 ], [ -12464190.430066363885999, 5028000.432691987603903 ], [ -12464282.035407904535532, 5028012.924329470843077 ], [ -12464280.994438115507364, 5028250.265441647730768 ] ] ] ] } },
{ "type": "Feature", "properties": { "id": 10, "Name": "Warehouse", "Code": 10 }, "geometry": { "type": "MultiPolygon", "coordinates": [ ] } },
{ "type": "Feature", "properties": { "id": 11, "Name": "Cryogenics Shop", "Code": 11 }, "geometry": { "type": "MultiPolygon", "coordinates": [ [ [ [ -12467022.648039640858769, 5029788.825518919155002 ], [ -12466919.767524937167764, 5029791.657092718407512 ], [ -12466913.160519406199455, 5029704.350233909673989 ], [ -12467022.176110675558448, 5029703.878304943442345 ], [ -12467022.648039640858769, 5029788.825518919155002 ] ] ] ] } },
{ "type": "Feature", "properties": { "id": 12, "Name": "Histoic Landfill", "Code": 12 }, "geometry": { "type": "MultiPolygon", "coordinates": [ [ [ [ -12463156.13401684910059, 5031210.511530598625541 ], [ -12462695.531345512717962, 5031312.448187369853258 ], [ -12462250.030401106923819, 5030968.883899734355509 ], [ -12462166.970902996137738, 5030685.726519814692438 ], [ -12462502.984327167272568, 5030640.421339027583599 ], [ -12462521.86148582957685, 5031074.595988237299025 ], [ -12463125.930562989786267, 5030889.599833357147872 ], [ -12463156.13401684910059, 5031210.511530598625541 ] ] ] ] } },
{ "type": "Feature", "properties": { "id": 13, "Name": "Battery Storage", "Code": 13 }, "geometry": { "type": "MultiPolygon", "coordinates": [ [ [ [ -12467792.010237330570817, 5030099.118814416229725 ], [ -12467605.126366583630443, 5030093.455666817724705 ], [ -12467617.396519713103771, 5029948.101545126177371 ], [ -12467793.897953195497394, 5029941.49453959427774 ], [ -12467792.010237330570817, 5030099.118814416229725 ] ] ] ] } },
{ "type": "Feature", "properties": { "id": 14, "Name": "Satellite Comms Dish", "Code": 14 }, "geometry": { "type": "MultiPolygon", "coordinates": [ [ [ [ -12465412.780352558940649, 5030380.624442951753736 ], [ -12465415.139997391030192, 5030376.849011219106615 ], [ -12465420.331216024234891, 5030380.152513985522091 ], [ -12465425.522434655576944, 5030391.478809181600809 ], [ -12465421.747002923861146, 5030407.052465077489614 ], [ -12465245.245569439604878, 5030559.957450234331191 ], [ -12465207.491252116858959, 5030577.890750962309539 ], [ -12465160.770284431055188, 5030584.497756493277848 ], [ -12465138.589623004198074, 5030577.418821996077895 ], [ -12465018.247736537829041, 5030344.285912528634071 ], [ -12465020.135452404618263, 5030329.184185599908233 ], [ -12465029.574031734839082, 5030323.521038001403213 ], [ -12465041.372255899012089, 5030320.689464202150702 ], [ -12465054.586266960948706, 5030321.633322135545313 ], [ -12465067.328349057585001, 5030324.464895934797823 ], [ -12465106.026524312794209, 5030378.26479811873287 ], [ -12465412.780352558940649, 5030380.624442951753736 ] ] ] ] } },
{ "type": "Feature", "properties": { "id": 15, "Name": "Pest Control", "Code": 15 }, "geometry": { "type": "MultiPolygon", "coordinates": [ [ [ [ -12465490.41266755759716, 5028631.419728498905897 ], [ -12465058.5976631809026, 5028630.003941599279642 ], [ -12465060.957308012992144, 5028405.365753530524671 ], [ -12465488.996880657970905, 5028403.949966630898416 ], [ -12465490.41266755759716, 5028631.419728498905897 ] ] ] ] } },
{ "type": "Feature", "properties": { "id": 16, "Name": "Gym Sauna", "Code": 16 }, "geometry": { "type": "MultiPolygon", "coordinates": [ [ [ [ -12465328.734038939699531, 5028146.044715233147144 ], [ -12465257.45829764008522, 5028146.581969564780593 ], [ -12465256.921043308451772, 5028037.698425065726042 ], [ -12465330.166717156767845, 5028036.803001180291176 ], [ -12465328.734038939699531, 5028146.044715233147144 ] ] ] ] } },
{ "type": "Feature", "properties": { "id": 16, "Name": "Gym Sauna", "Code": 16 }, "geometry": { "type": "MultiPolygon", "coordinates": [ ] } },
{ "type": "Feature", "properties": { "id": 17, "Name": "Paint Shop", "Code": 17 }, "geometry": { "type": "MultiPolygon", "coordinates": [ [ [ [ -12464148.010722260922194, 5031333.213061897084117 ], [ -12464009.26360610127449, 5031384.181390282697976 ], [ -12463949.800556318834424, 5031209.56767266523093 ], [ -12464062.119650352746248, 5031175.588787075132132 ], [ -12464148.010722260922194, 5031333.213061897084117 ] ] ] ] } },
{ "type": "Feature", "properties": { "id": 19, "Name": "Mechanical Shop", "Code": 19 }, "geometry": { "type": "MultiPolygon", "coordinates": [ [ [ [ -12464348.108604073524475, 5027978.977932270616293 ], [ -12464242.868444537743926, 5028033.721692388877273 ], [ -12464192.372045118361712, 5027926.593816985376179 ], [ -12464299.499920520931482, 5027873.265843767672777 ], [ -12464348.108604073524475, 5027978.977932270616293 ] ] ] ] } },
{ "type": "Feature", "properties": { "id": 20, "Name": "Gate Area", "Code": null }, "geometry": { "type": "MultiPolygon", "coordinates": [ [ [ [ -12464851.249751977622509, 5027978.119985239580274 ], [ -12464742.008037937805057, 5027978.119985239580274 ], [ -12464697.595013214275241, 5027873.534475404769182 ], [ -12464699.385860985144973, 5027799.035208125598729 ], [ -12464860.203990833833814, 5027802.975073222070932 ], [ -12464851.249751977622509, 5027978.119985239580274 ] ] ] ] } },
{ "type": "Feature", "properties": { "id": 21, "Name": "Feild Training Area", "Code": 21 }, "geometry": { "type": "MultiPolygon", "coordinates": [ [ [ [ -12462567.16666660271585, 5030617.4148019105196 ], [ -12462195.286640975624323, 5030675.462064794264734 ], [ -12462207.084865137934685, 5030446.104587059468031 ], [ -12462554.424584506079555, 5030392.304684874601662 ], [ -12462567.16666660271585, 5030617.4148019105196 ] ] ] ] } },
{ "type": "Feature", "properties": { "id": 22, "Name": "Medical X ray", "Code": 22 }, "geometry": { "type": "MultiPolygon", "coordinates": [ [ [ [ -12465674.11101777292788, 5027985.11300883255899 ], [ -12465554.241060273721814, 5027983.697221932932734 ], [ -12465539.611262312158942, 5027764.722181461751461 ], [ -12465666.560154309496284, 5027785.487055989913642 ], [ -12465674.11101777292788, 5027985.11300883255899 ] ] ] ] } },
{ "type": "Feature", "properties": { "id": 18, "Name": "Chemical Lab", "Code": 18 }, "geometry": { "type": "MultiPolygon", "coordinates": [ [ [ [ -12465114.049316754564643, 5028722.030090075917542 ], [ -12465050.102941790595651, 5028723.445876975543797 ], [ -12465050.102941790595651, 5028681.208234470337629 ], [ -12465114.049316754564643, 5028680.028412054292858 ], [ -12465114.049316754564643, 5028722.030090075917542 ] ] ] ] } },
{ "type": "Feature", "properties": { "id": 24, "Name": "Municipal Water Supply", "Code": 24 }, "geometry": { "type": "MultiPolygon", "coordinates": [ [ [ [ -12465751.688011292368174, 5033274.015014068223536 ], [ -12465673.248878916725516, 5033271.865996742621064 ], [ -12465670.74169203825295, 5033197.724899017252028 ], [ -12465701.5442737005651, 5033191.277847041375935 ], [ -12465757.060554606840014, 5033254.315688585862517 ], [ -12465751.688011292368174, 5033274.015014068223536 ] ] ] ] } },
{ "type": "Feature", "properties": { "id": 23, "Name": "HazMat Storage Area", "Code": 23 }, "geometry": { "type": "MultiPolygon", "coordinates": [ [ [ [ -12469319.644302006810904, 5029583.300453999079764 ], [ -12469255.461962558329105, 5029621.998629254288971 ], [ -12469207.325207972899079, 5029544.602278742939234 ], [ -12469273.395263286307454, 5029514.398824885487556 ], [ -12469319.644302006810904, 5029583.300453999079764 ] ] ] ] } },
{ "type": "Feature", "properties": { "id": 25, "Name": "'arthropod Vectors", "Code": 25 }, "geometry": { "type": "MultiPolygon", "coordinates": [ [ [ [ -12465231.323664953932166, 5028297.52998468093574 ], [ -12465233.211380818858743, 5028259.303738391958177 ], [ -12465233.683309786021709, 5028336.228159936144948 ], [ -12464979.31359682418406, 5028338.587804769165814 ], [ -12464973.65044922567904, 5028057.790069682523608 ], [ -12465227.076304255053401, 5028061.565501414239407 ], [ -12465231.323664953932166, 5028297.52998468093574 ] ] ] ] } }
]
}
